{
  "type": "FeatureCollection",
  "features": [
    {
      "type": "Feature",
      "properties": {
        "norad_id": 66911,
        "name": "1998-067XX",
        "group": "last-30-days",
        "lat": 46.62237862478086,
        "lon": -149.44838525241383,
        "alt_km": 408.31227872985255,
        "timestamp": "2025-12-10T11:33:52.173540+00:00",
        "meta_object_name": "1998-067XX",
        "meta_object_id": "1998-067XX",
        "meta_epoch": "2025-12-09T02:48:25.040736",
        "meta_mean_motion": 15.51276485,
        "meta_eccentricity": 0.00057034,
        "meta_inclination": 51.6296,
        "meta_ra_of_asc_node": 160.3494,
        "meta_arg_of_pericenter": 191.2268,
        "meta_mean_anomaly": 168.8595,
        "meta_ephemeris_type": 0,
        "meta_classification_type": "U",
        "meta_norad_cat_id": 66911,
        "meta_element_set_no": 999,
        "meta_rev_at_epoch": 104,
        "meta_bstar": 0.0014245982,
        "meta_mean_motion_dot": 0.00085582,
        "meta_mean_motion_ddot": 0,
        "tle_line1": "1 66911U 98067XX  25343.11695649  .00085582  00000+0  14246-2 0  9997",
        "tle_line2": "2 66911  51.6296 160.3494 0005703 191.2268 168.8595 15.51276485  1046"
      },
      "geometry": {
        "type": "Point",
        "coordinates": [
          -149.44838525241383,
          46.62237862478086
        ]
      }
    },
    {
      "type": "Feature",
      "properties": {
        "norad_id": 66912,
        "name": "1998-067XY",
        "group": "last-30-days",
        "lat": 38.716379380626044,
        "lon": -166.9717392346868,
        "alt_km": 412.368172636483,
        "timestamp": "2025-12-10T11:33:52.173552+00:00",
        "meta_object_name": "1998-067XY",
        "meta_object_id": "1998-067XY",
        "meta_epoch": "2025-12-08T19:07:24.168000",
        "meta_mean_motion": 15.50590071,
        "meta_eccentricity": 0.00050436,
        "meta_inclination": 51.6301,
        "meta_ra_of_asc_node": 161.961,
        "meta_arg_of_pericenter": 202.8278,
        "meta_mean_anomaly": 157.2488,
        "meta_ephemeris_type": 0,
        "meta_classification_type": "U",
        "meta_norad_cat_id": 66912,
        "meta_element_set_no": 999,
        "meta_rev_at_epoch": 99,
        "meta_bstar": 0.0009627216,
        "meta_mean_motion_dot": 0.00056065,
        "meta_mean_motion_ddot": 0,
        "tle_line1": "1 66912U 98067XY  25342.79680750  .00056065  00000+0  96272-3 0  9992",
        "tle_line2": "2 66912  51.6301 161.9610 0005043 202.8278 157.2488 15.50590071   993"
      },
      "geometry": {
        "type": "Point",
        "coordinates": [
          -166.9717392346868,
          38.716379380626044
        ]
      }
    },
    {
      "type": "Feature",
      "properties": {
        "norad_id": 66913,
        "name": "2025-284A",
        "group": "last-30-days",
        "lat": -38.22346543678894,
        "lon": 124.97014591668291,
        "alt_km": 518.4230072958553,
        "timestamp": "2025-12-10T11:33:52.173562+00:00",
        "meta_object_name": "2025-284A",
        "meta_object_id": "2025-284A",
        "meta_epoch": "2025-12-10T03:49:48.958752",
        "meta_mean_motion": 15.18884282,
        "meta_eccentricity": 0.0011955,
        "meta_inclination": 80.4047,
        "meta_ra_of_asc_node": 133.0352,
        "meta_arg_of_pericenter": 212.3226,
        "meta_mean_anomaly": 147.727,
        "meta_ephemeris_type": 0,
        "meta_classification_type": "U",
        "meta_norad_cat_id": 66913,
        "meta_element_set_no": 999,
        "meta_rev_at_epoch": 73,
        "meta_bstar": 0.00041795,
        "meta_mean_motion_dot": 8.753e-05,
        "meta_mean_motion_ddot": 0,
        "tle_line1": "1 66913U 25284A   25344.15959443  .00008753  00000+0  41795-3 0  9995",
        "tle_line2": "2 66913  80.4047 133.0352 0011955 212.3226 147.7270 15.18884282   731"
      },
      "geometry": {
        "type": "Point",
        "coordinates": [
          124.97014591668291,
          -38.22346543678894
        ]
      }
    },
    {
      "type": "Feature",
      "properties": {
        "norad_id": 66914,
        "name": "2025-284B",
        "group": "last-30-days",
        "lat": -35.7951793029998,
        "lon": 125.62123352113514,
        "alt_km": 513.6676028382735,
        "timestamp": "2025-12-10T11:33:52.173572+00:00",
        "meta_object_name": "2025-284B",
        "meta_object_id": "2025-284B",
        "meta_epoch": "2025-12-10T05:23:59.892000",
        "meta_mean_motion": 15.18840838,
        "meta_eccentricity": 0.0008157,
        "meta_inclination": 80.4057,
        "meta_ra_of_asc_node": 132.9528,
        "meta_arg_of_pericenter": 254.8779,
        "meta_mean_anomaly": 105.1546,
        "meta_ephemeris_type": 0,
        "meta_classification_type": "U",
        "meta_norad_cat_id": 66914,
        "meta_element_set_no": 999,
        "meta_rev_at_epoch": 74,
        "meta_bstar": 0.00067227,
        "meta_mean_motion_dot": 0.00014044,
        "meta_mean_motion_ddot": 0,
        "tle_line1": "1 66914U 25284B   25344.22499875  .00014044  00000+0  67227-3 0  9990",
        "tle_line2": "2 66914  80.4057 132.9528 0008157 254.8779 105.1546 15.18840838   744"
      },
      "geometry": {
        "type": "Point",
        "coordinates": [
          125.62123352113514,
          -35.7951793029998
        ]
      }
    },
    {
      "type": "Feature",
      "properties": {
        "norad_id": 66915,
        "name": "HULIANWANG DIGUI 14A",
        "group": "last-30-days",
        "lat": -48.923174457535595,
        "lon": 52.08679428842515,
        "alt_km": 873.5143918866033,
        "timestamp": "2025-12-10T11:33:52.173582+00:00",
        "meta_object_name": "HULIANWANG DIGUI 14A",
        "meta_object_id": "2025-285A",
        "meta_epoch": "2025-12-10T05:07:00.829056",
        "meta_mean_motion": 14.0546633,
        "meta_eccentricity": 0.0008105,
        "meta_inclination": 50.0034,
        "meta_ra_of_asc_node": 127.5821,
        "meta_arg_of_pericenter": 274.1801,
        "meta_mean_anomaly": 85.8178,
        "meta_ephemeris_type": 0,
        "meta_classification_type": "U",
        "meta_norad_cat_id": 66915,
        "meta_element_set_no": 999,
        "meta_rev_at_epoch": 55,
        "meta_bstar": 1.2826e-05,
        "meta_mean_motion_dot": -1.31e-06,
        "meta_mean_motion_ddot": 0,
        "tle_line1": "1 66915U 25285A   25344.21320404 -.00000131  00000+0  12826-4 0  9991",
        "tle_line2": "2 66915  50.0034 127.5821 0008105 274.1801  85.8178 14.05466330   553"
      },
      "geometry": {
        "type": "Point",
        "coordinates": [
          52.08679428842515,
          -48.923174457535595
        ]
      }
    },
    {
      "type": "Feature",
      "properties": {
        "norad_id": 66916,
        "name": "HULIANWANG DIGUI 14B",
        "group": "last-30-days",
        "lat": -48.76685492903247,
        "lon": 53.18363508703448,
        "alt_km": 874.2518507020832,
        "timestamp": "2025-12-10T11:33:52.173592+00:00",
        "meta_object_name": "HULIANWANG DIGUI 14B",
        "meta_object_id": "2025-285B",
        "meta_epoch": "2025-12-10T05:06:49.310208",
        "meta_mean_motion": 14.05512718,
        "meta_eccentricity": 0.000696,
        "meta_inclination": 50.0045,
        "meta_ra_of_asc_node": 127.5825,
        "meta_arg_of_pericenter": 268.8886,
        "meta_mean_anomaly": 91.1222,
        "meta_ephemeris_type": 0,
        "meta_classification_type": "U",
        "meta_norad_cat_id": 66916,
        "meta_element_set_no": 999,
        "meta_rev_at_epoch": 55,
        "meta_bstar": 1.2834e-05,
        "meta_mean_motion_dot": -1.31e-06,
        "meta_mean_motion_ddot": 0,
        "tle_line1": "1 66916U 25285B   25344.21307072 -.00000131  00000+0  12834-4 0  9997",
        "tle_line2": "2 66916  50.0045 127.5825 0006960 268.8886  91.1222 14.05512718   552"
      },
      "geometry": {
        "type": "Point",
        "coordinates": [
          53.18363508703448,
          -48.76685492903247
        ]
      }
    },
    {
      "type": "Feature",
      "properties": {
        "norad_id": 66917,
        "name": "HULIANWANG DIGUI 14C",
        "group": "last-30-days",
        "lat": -48.523668393479156,
        "lon": 54.71371189524497,
        "alt_km": 873.5143718357685,
        "timestamp": "2025-12-10T11:33:52.173601+00:00",
        "meta_object_name": "HULIANWANG DIGUI 14C",
        "meta_object_id": "2025-285C",
        "meta_epoch": "2025-12-10T05:06:32.323968",
        "meta_mean_motion": 14.055788,
        "meta_eccentricity": 0.0007544,
        "meta_inclination": 50.001,
        "meta_ra_of_asc_node": 127.578,
        "meta_arg_of_pericenter": 276.5822,
        "meta_mean_anomaly": 83.4225,
        "meta_ephemeris_type": 0,
        "meta_classification_type": "U",
        "meta_norad_cat_id": 66917,
        "meta_element_set_no": 999,
        "meta_rev_at_epoch": 55,
        "meta_bstar": -3.0651e-06,
        "meta_mean_motion_dot": -1.57e-06,
        "meta_mean_motion_ddot": 0,
        "tle_line1": "1 66917U 25285C   25344.21287412 -.00000157  00000+0 -30651-5 0  9990",
        "tle_line2": "2 66917  50.0010 127.5780 0007544 276.5822  83.4225 14.05578800   551"
      },
      "geometry": {
        "type": "Point",
        "coordinates": [
          54.71371189524497,
          -48.523668393479156
        ]
      }
    }
  ]
}